{
  "type": "FeatureCollection",
  "features": [
    {
      "type": "Feature",
      "properties": {
        "norad_id": 22490,
        "name": "SCD 1",
        "group": "resource",
        "lat": 22.13964569009885,
        "lon": -6.001263960459588,
        "alt_km": 749.6031447475334,
        "timestamp": "2025-12-10T09:57:44.360665+00:00",
        "meta_object_name": "SCD 1",
        "meta_object_id": "1993-009B",
        "meta_epoch": "2025-12-09T14:32:21.488928",
        "meta_mean_motion": 14.45995775,
        "meta_eccentricity": 0.004173,
        "meta_inclination": 24.9704,
        "meta_ra_of_asc_node": 298.0332,
        "meta_arg_of_pericenter": 291.7211,
        "meta_mean_anomaly": 229.7743,
        "meta_ephemeris_type": 0,
        "meta_classification_type": "U",
        "meta_norad_cat_id": 22490,
        "meta_element_set_no": 999,
        "meta_rev_at_epoch": 73364,
        "meta_bstar": 0.00017156,
        "meta_mean_motion_dot": 8.13e-06,
        "meta_mean_motion_ddot": 0,
        "tle_line1": "1 22490U 93009B   25343.60580427  .00000813  00000+0  17156-3 0  9991",
        "tle_line2": "2 22490  24.9704 298.0332 0041730 291.7211 229.7743 14.45995775733643"
      },
      "geometry": {
        "type": "Point",
        "coordinates": [
          -6.001263960459588,
          22.13964569009885
        ]
      }
    },
    {
      "type": "Feature",
      "properties": {
        "norad_id": 25397,
        "name": "TECHSAT 1B (GO-32)",
        "group": "resource",
        "lat": 43.63299563215004,
        "lon": 156.25589659875706,
        "alt_km": 806.4922369804453,
        "timestamp": "2025-12-10T09:57:44.360691+00:00",
        "meta_object_name": "TECHSAT 1B (GO-32)",
        "meta_object_id": "1998-043D",
        "meta_epoch": "2025-12-09T21:31:36.423840",
        "meta_mean_motion": 14.2437571,
        "meta_eccentricity": 0.0002134,
        "meta_inclination": 98.9917,
        "meta_ra_of_asc_node": 327.0435,
        "meta_arg_of_pericenter": 61.9016,
        "meta_mean_anomaly": 298.2377,
        "meta_ephemeris_type": 0,
        "meta_classification_type": "U",
        "meta_norad_cat_id": 25397,
        "meta_element_set_no": 999,
        "meta_rev_at_epoch": 42438,
        "meta_bstar": 8.9466e-05,
        "meta_mean_motion_dot": 1.6e-06,
        "meta_mean_motion_ddot": 0,
        "tle_line1": "1 25397U 98043D   25343.89694935  .00000160  00000+0  89466-4 0  9993",
        "tle_line2": "2 25397  98.9917 327.0435 0002134  61.9016 298.2377 14.24375710424381"
      },
      "geometry": {
        "type": "Point",
        "coordinates": [
          156.25589659875706,
          43.63299563215004
        ]
      }
    },
    {
      "type": "Feature",
      "properties": {
        "norad_id": 25504,
        "name": "SCD 2",
        "group": "resource",
        "lat": 24.585460723401074,
        "lon": -102.91634041690675,
        "alt_km": 746.6833833352712,
        "timestamp": "2025-12-10T09:57:44.360707+00:00",
        "meta_object_name": "SCD 2",
        "meta_object_id": "1998-060A",
        "meta_epoch": "2025-12-09T18:41:38.027040",
        "meta_mean_motion": 14.45420959,
        "meta_eccentricity": 0.0016592,
        "meta_inclination": 24.9931,
        "meta_ra_of_asc_node": 160.1538,
        "meta_arg_of_pericenter": 281.9313,
        "meta_mean_anomaly": 100.7711,
        "meta_ephemeris_type": 0,
        "meta_classification_type": "U",
        "meta_norad_cat_id": 25504,
        "meta_element_set_no": 999,
        "meta_rev_at_epoch": 43289,
        "meta_bstar": 0.0001259,
        "meta_mean_motion_dot": 6.33e-06,
        "meta_mean_motion_ddot": 0,
        "tle_line1": "1 25504U 98060A   25343.77891235  .00000633  00000+0  12590-3 0  9999",
        "tle_line2": "2 25504  24.9931 160.1538 0016592 281.9313 100.7711 14.45420959432896"
      },
      "geometry": {
        "type": "Point",
        "coordinates": [
          -102.91634041690675,
          24.585460723401074
        ]
      }
    },
    {
      "type": "Feature",
      "properties": {
        "norad_id": 25757,
        "name": "DLR-TUBSAT",
        "group": "resource",
        "lat": 58.876159190983216,
        "lon": 163.47030238804388,
        "alt_km": 710.5654922050435,
        "timestamp": "2025-12-10T09:57:44.360719+00:00",
        "meta_object_name": "DLR-TUBSAT",
        "meta_object_id": "1999-029B",
        "meta_epoch": "2025-12-09T16:52:35.211648",
        "meta_mean_motion": 14.52355963,
        "meta_eccentricity": 0.0013728,
        "meta_inclination": 98.656,
        "meta_ra_of_asc_node": 328.1233,
        "meta_arg_of_pericenter": 202.2533,
        "meta_mean_anomaly": 157.8067,
        "meta_ephemeris_type": 0,
        "meta_classification_type": "U",
        "meta_norad_cat_id": 25757,
        "meta_element_set_no": 999,
        "meta_rev_at_epoch": 40574,
        "meta_bstar": 8.0486e-05,
        "meta_mean_motion_dot": 2.8e-06,
        "meta_mean_motion_ddot": 0,
        "tle_line1": "1 25757U 99029B   25343.70318532  .00000280  00000+0  80486-4 0  9990",
        "tle_line2": "2 25757  98.6560 328.1233 0013728 202.2533 157.8067 14.52355963405749"
      },
      "geometry": {
        "type": "Point",
        "coordinates": [
          163.47030238804388,
          58.876159190983216
        ]
      }
    },
    {
      "type": "Feature",
      "properties": {
        "norad_id": 25994,
        "name": "TERRA",
        "group": "resource",
        "lat": 66.57262071552557,
        "lon": -124.93787036498564,
        "alt_km": 681.3249956201598,
        "timestamp": "2025-12-10T09:57:44.360731+00:00",
        "meta_object_name": "TERRA",
        "meta_object_id": "1999-068A",
        "meta_epoch": "2025-12-09T19:09:34.428096",
        "meta_mean_motion": 14.60897092,
        "meta_eccentricity": 0.0003584,
        "meta_inclination": 97.9752,
        "meta_ra_of_asc_node": 35.5908,
        "meta_arg_of_pericenter": 100.1248,
        "meta_mean_anomaly": 10.0634,
        "meta_ephemeris_type": 0,
        "meta_classification_type": "U",
        "meta_norad_cat_id": 25994,
        "meta_element_set_no": 999,
        "meta_rev_at_epoch": 38195,
        "meta_bstar": 0.00017702,
        "meta_mean_motion_dot": 8.22e-06,
        "meta_mean_motion_ddot": 0,
        "tle_line1": "1 25994U 99068A   25343.79831514  .00000822  00000+0  17702-3 0  9997",
        "tle_line2": "2 25994  97.9752  35.5908 0003584 100.1248  10.0634 14.60897092381952"
      },
      "geometry": {
        "type": "Point",
        "coordinates": [
          -124.93787036498564,
          66.57262071552557
        ]
      }
    },
    {
      "type": "Feature",
      "properties": {
        "norad_id": 27004,
        "name": "MAROC-TUBSAT",
        "group": "resource",
        "lat": 41.273869412139554,
        "lon": -18.463598726027563,
        "alt_km": 1003.9924390942087,
        "timestamp": "2025-12-10T09:57:44.360743+00:00",
        "meta_object_name": "MAROC-TUBSAT",
        "meta_object_id": "2001-056D",
        "meta_epoch": "2025-12-09T17:38:08.402208",
        "meta_mean_motion": 13.70252674,
        "meta_eccentricity": 0.0019088,
        "meta_inclination": 99.7912,
        "meta_ra_of_asc_node": 152.1272,
        "meta_arg_of_pericenter": 268.1363,
        "meta_mean_anomaly": 115.929,
        "meta_ephemeris_type": 0,
        "meta_classification_type": "U",
        "meta_norad_cat_id": 27004,
        "meta_element_set_no": 999,
        "meta_rev_at_epoch": 20024,
        "meta_bstar": 4.6196e-05,
        "meta_mean_motion_dot": -6e-08,
        "meta_mean_motion_ddot": 0,
        "tle_line1": "1 27004U 01056D   25343.73481947 -.00000006  00000+0  46196-4 0  9991",
        "tle_line2": "2 27004  99.7912 152.1272 0019088 268.1363 115.9290 13.70252674200249"
      },
      "geometry": {
        "type": "Point",
        "coordinates": [
          -18.463598726027563,
          41.273869412139554
        ]
      }
    },
    {
      "type": "Feature",
      "properties": {
        "norad_id": 27424,
        "name": "AQUA",
        "group": "resource",
        "lat": -20.42579877202249,
        "lon": -51.587829624579825,
        "alt_km": 693.0500353680391,
        "timestamp": "2025-12-10T09:57:44.360755+00:00",
        "meta_object_name": "AQUA",
        "meta_object_id": "2002-022A",
        "meta_epoch": "2025-12-09T21:02:12.331104",
        "meta_mean_motion": 14.61799118,
        "meta_eccentricity": 9.79e-05,
        "meta_inclination": 98.4034,
        "meta_ra_of_asc_node": 304.7091,
        "meta_arg_of_pericenter": 114.1879,
        "meta_mean_anomaly": 272.7648,
        "meta_ephemeris_type": 0,
        "meta_classification_type": "U",
        "meta_norad_cat_id": 27424,
        "meta_element_set_no": 999,
        "meta_rev_at_epoch": 25561,
        "meta_bstar": 0.0003959,
        "meta_mean_motion_dot": 1.927e-05,
        "meta_mean_motion_ddot": 0,
        "tle_line1": "1 27424U 02022A   25343.87653161  .00001927  00000+0  39590-3 0  9996",
        "tle_line2": "2 27424  98.4034 304.7091 0000979 114.1879 272.7648 14.61799118255611"
      },
      "geometry": {
        "type": "Point",
        "coordinates": [
          -51.587829624579825,
          -20.42579877202249
        ]
      }
    }
  ]
}